[{"id":1,"cityname":"Perico","zipcode":null,"regionid":970},
{"id":2,"cityname":"Andongrejo","zipcode":null,"regionid":341},
{"id":3,"cityname":"Luxi","zipcode":null,"regionid":468},
{"id":4,"cityname":"Donggang","zipcode":null,"regionid":851},
{"id":5,"cityname":"Bamiantong","zipcode":null,"regionid":810},
{"id":6,"cityname":"El Aguilar","zipcode":"4634","regionid":602},
{"id":7,"cityname":"Kilinochchi","zipcode":"22034","regionid":831},
{"id":8,"cityname":"Buinsk","zipcode":"429720","regionid":137},
{"id":9,"cityname":"Quisqueya","zipcode":"11109","regionid":1000},
{"id":10,"cityname":"Bélel","zipcode":null,"regionid":56},
{"id":11,"cityname":"Christiana","zipcode":"2680","regionid":553},
{"id":12,"cityname":"Rennebu","zipcode":"7398","regionid":261},
{"id":13,"cityname":"Kochenëvo","zipcode":"632643","regionid":728},
{"id":14,"cityname":"Sanlanbahai","zipcode":null,"regionid":466},
{"id":15,"cityname":"Olocuilta","zipcode":null,"regionid":341},
{"id":16,"cityname":"Xiangshan","zipcode":null,"regionid":670},
{"id":17,"cityname":"Göteborg","zipcode":"417 63","regionid":114},
{"id":18,"cityname":"Tomteboda","zipcode":"173 18","regionid":810},
{"id":19,"cityname":"Nanping","zipcode":null,"regionid":268},
{"id":20,"cityname":"La Guadalupe","zipcode":"95600","regionid":769},
{"id":21,"cityname":"Duluth","zipcode":"30096","regionid":80},
{"id":22,"cityname":"Campos Novos","zipcode":"89620-000","regionid":375},
{"id":23,"cityname":"Ryazanskaya","zipcode":"352613","regionid":820},
{"id":24,"cityname":"Giemdiem","zipcode":null,"regionid":260},
{"id":25,"cityname":"Vila Nova da Baronia","zipcode":"7920-355","regionid":340},
{"id":26,"cityname":"Pittsburgh","zipcode":"15220","regionid":646},
{"id":27,"cityname":"Tanahbeureum","zipcode":null,"regionid":195},
{"id":28,"cityname":"Alanga","zipcode":null,"regionid":927},
{"id":29,"cityname":"Toulouse","zipcode":"31059 CEDEX 9","regionid":592},
{"id":30,"cityname":"Rongxiang","zipcode":null,"regionid":180},
{"id":31,"cityname":"Bieniewice","zipcode":"05-870","regionid":9},
{"id":32,"cityname":"Toyohama","zipcode":"819-0014","regionid":887},
{"id":33,"cityname":"Frederiksberg","zipcode":"1917","regionid":462},
{"id":34,"cityname":"Pignon","zipcode":null,"regionid":596},
{"id":35,"cityname":"Sandata","zipcode":"347612","regionid":730},
{"id":36,"cityname":"Boden","zipcode":"961 86","regionid":647},
{"id":37,"cityname":"Bastos","zipcode":"17690-000","regionid":62},
{"id":38,"cityname":"Vannes","zipcode":"56004 CEDEX","regionid":131},
{"id":39,"cityname":"Algarrobo","zipcode":"472047","regionid":555},
{"id":40,"cityname":"Topeka","zipcode":"66622","regionid":454},
{"id":41,"cityname":"Ostrów Wielkopolski","zipcode":"63-417","regionid":99},
{"id":42,"cityname":"Maguan","zipcode":null,"regionid":833},
{"id":43,"cityname":"Muladbucad","zipcode":"1095","regionid":778},
{"id":44,"cityname":"Dukoh","zipcode":null,"regionid":381},
{"id":45,"cityname":"Daegu","zipcode":null,"regionid":551},
{"id":46,"cityname":"Changdai","zipcode":null,"regionid":132},
{"id":47,"cityname":"Чучер - Сандево","zipcode":"1011","regionid":725},
{"id":48,"cityname":"Nenotes","zipcode":null,"regionid":946},
{"id":49,"cityname":"Mouriscas","zipcode":"2200-706","regionid":817},
{"id":50,"cityname":"Niono","zipcode":null,"regionid":921},
{"id":51,"cityname":"Reims","zipcode":"51064 CEDEX","regionid":845},
{"id":52,"cityname":"Saint Croix","zipcode":"00851","regionid":60},
{"id":53,"cityname":"Benito Juarez","zipcode":"66410","regionid":986},
{"id":54,"cityname":"Al ‘Anān","zipcode":null,"regionid":830},
{"id":55,"cityname":"Xinhua","zipcode":null,"regionid":812},
{"id":56,"cityname":"Raofeng","zipcode":null,"regionid":431},
{"id":57,"cityname":"Jianyangping","zipcode":null,"regionid":646},
{"id":58,"cityname":"Xichangmen","zipcode":null,"regionid":330},
{"id":59,"cityname":"Bugembe","zipcode":null,"regionid":476},
{"id":60,"cityname":"Rezé","zipcode":"44409 CEDEX","regionid":97},
{"id":61,"cityname":"Jorowaru Daya","zipcode":null,"regionid":393},
{"id":62,"cityname":"‘Attīl","zipcode":null,"regionid":832},
{"id":63,"cityname":"Yatsushiro","zipcode":"286-0002","regionid":750},
{"id":64,"cityname":"Yeosu","zipcode":null,"regionid":912},
{"id":65,"cityname":"Jianmin","zipcode":null,"regionid":122},
{"id":66,"cityname":"Otutara","zipcode":null,"regionid":814},
{"id":67,"cityname":"Krasiczyn","zipcode":"37-741","regionid":978},
{"id":68,"cityname":"Jingmen","zipcode":null,"regionid":718},
{"id":69,"cityname":"Wenping","zipcode":null,"regionid":827},
{"id":70,"cityname":"Phu Loc","zipcode":null,"regionid":149},
{"id":71,"cityname":"Rosário do Sul","zipcode":"97590-000","regionid":234},
{"id":72,"cityname":"Amboasary","zipcode":null,"regionid":277},
{"id":73,"cityname":"Frankfort","zipcode":"9830","regionid":80},
{"id":74,"cityname":"Wucun","zipcode":null,"regionid":890},
{"id":75,"cityname":"Ar Rubū‘","zipcode":null,"regionid":122},
{"id":76,"cityname":"Zhongchao","zipcode":null,"regionid":889},
{"id":77,"cityname":"Lindavista","zipcode":"95098","regionid":433},
{"id":78,"cityname":"Rozhniv","zipcode":null,"regionid":245},
{"id":79,"cityname":"Futaleufú","zipcode":null,"regionid":322},
{"id":80,"cityname":"Oliveira","zipcode":"3660-622","regionid":945},
{"id":81,"cityname":"Floreşti","zipcode":"MD-5040","regionid":634},
{"id":82,"cityname":"Abbottābād","zipcode":"22501","regionid":801},
{"id":83,"cityname":"Fucheng","zipcode":null,"regionid":56},
{"id":84,"cityname":"Harrisburg","zipcode":"17126","regionid":695},
{"id":85,"cityname":"Porto Salvo","zipcode":"2740-010","regionid":141},
{"id":86,"cityname":"Kamaris","zipcode":null,"regionid":182},
{"id":87,"cityname":"Marjayoûn","zipcode":null,"regionid":92},
{"id":88,"cityname":"Bartniczka","zipcode":"87-321","regionid":251},
{"id":89,"cityname":"Dongshangen","zipcode":null,"regionid":394},
{"id":90,"cityname":"Huai’an","zipcode":null,"regionid":57},
{"id":91,"cityname":"Brikama","zipcode":null,"regionid":383},
{"id":92,"cityname":"Huocheng","zipcode":null,"regionid":418},
{"id":93,"cityname":"Hekou","zipcode":null,"regionid":181},
{"id":94,"cityname":"Şūrān","zipcode":null,"regionid":223},
{"id":95,"cityname":"Kumagaya","zipcode":"360-0016","regionid":182},
{"id":96,"cityname":"Gaohu","zipcode":null,"regionid":384},
{"id":97,"cityname":"Al Mazār","zipcode":null,"regionid":600},
{"id":98,"cityname":"Vuhlehirs’k","zipcode":null,"regionid":883},
{"id":99,"cityname":"Grębków","zipcode":"07-110","regionid":874},
{"id":100,"cityname":"Las Matas de Farfán","zipcode":"11809","regionid":502},
{"id":101,"cityname":"Martapura","zipcode":null,"regionid":773},
{"id":102,"cityname":"Dongtucheng","zipcode":null,"regionid":314},
{"id":103,"cityname":"Avranches","zipcode":"50309 CEDEX","regionid":406},
{"id":104,"cityname":"Jianjun","zipcode":null,"regionid":281},
{"id":105,"cityname":"Buenavista","zipcode":"94463","regionid":131},
{"id":106,"cityname":"Tabatinga","zipcode":"14910-000","regionid":718},
{"id":107,"cityname":"Saint-Denis","zipcode":"93285 CEDEX","regionid":473},
{"id":108,"cityname":"Heyu","zipcode":null,"regionid":405},
{"id":109,"cityname":"Krzeszów","zipcode":"58-405","regionid":675},
{"id":110,"cityname":"Zhongzuiling","zipcode":null,"regionid":231},
{"id":111,"cityname":"Podivín","zipcode":"691 45","regionid":477},
{"id":112,"cityname":"Nedašov","zipcode":"763 32","regionid":661},
{"id":113,"cityname":"Monteros","zipcode":"4142","regionid":809},
{"id":114,"cityname":"Huifa","zipcode":null,"regionid":690},
{"id":115,"cityname":"Yanggu","zipcode":null,"regionid":92},
{"id":116,"cityname":"Putrajaya","zipcode":"62576","regionid":897},
{"id":117,"cityname":"Chambéry","zipcode":"73009 CEDEX","regionid":424},
{"id":118,"cityname":"Kropotkin","zipcode":"361012","regionid":370},
{"id":119,"cityname":"Lukou","zipcode":null,"regionid":249},
{"id":120,"cityname":"Nagahama","zipcode":"968-0442","regionid":351},
{"id":121,"cityname":"San Diego","zipcode":"30302","regionid":1000},
{"id":122,"cityname":"Tolotangga","zipcode":null,"regionid":924},
{"id":123,"cityname":"San Diego","zipcode":"202038","regionid":635},
{"id":124,"cityname":"Aguilares","zipcode":"4152","regionid":15},
{"id":125,"cityname":"Valdivia","zipcode":null,"regionid":972},
{"id":126,"cityname":"Seiça","zipcode":"2435-609","regionid":720},
{"id":127,"cityname":"Randuboto","zipcode":null,"regionid":879},
{"id":128,"cityname":"Gardēz","zipcode":null,"regionid":412},
{"id":129,"cityname":"La Ligua","zipcode":null,"regionid":857},
{"id":130,"cityname":"Mýrina","zipcode":null,"regionid":144},
{"id":131,"cityname":"Idah","zipcode":null,"regionid":350},
{"id":132,"cityname":"Ponce","zipcode":"00731","regionid":874},
{"id":133,"cityname":"Pulaupinang","zipcode":null,"regionid":939},
{"id":134,"cityname":"Smokvica","zipcode":"23249","regionid":477},
{"id":135,"cityname":"Itaporanga","zipcode":"18480-000","regionid":985},
{"id":136,"cityname":"Babao","zipcode":null,"regionid":44},
{"id":137,"cityname":"Guanjiabao","zipcode":null,"regionid":810},
{"id":138,"cityname":"Suzuka","zipcode":"669-1417","regionid":6},
{"id":139,"cityname":"Yarīm","zipcode":null,"regionid":395},
{"id":140,"cityname":"San José de Mayo","zipcode":null,"regionid":722},
{"id":141,"cityname":"Piracanjuba","zipcode":"75640-000","regionid":196},
{"id":142,"cityname":"Timóteo","zipcode":"35180-000","regionid":750},
{"id":143,"cityname":"Whakatane","zipcode":"3158","regionid":580},
{"id":144,"cityname":"Magatos","zipcode":"8113","regionid":25},
{"id":145,"cityname":"Royan","zipcode":"17209 CEDEX","regionid":557},
{"id":146,"cityname":"San Ramon","zipcode":"6710","regionid":919},
{"id":147,"cityname":"Marzhing","zipcode":null,"regionid":941},
{"id":148,"cityname":"Aragarças","zipcode":"76240-000","regionid":222},
{"id":149,"cityname":"Punkaharju","zipcode":"58501","regionid":749},
{"id":150,"cityname":"Balogo","zipcode":"5401","regionid":213},
{"id":151,"cityname":"Sochaux","zipcode":"25609 CEDEX","regionid":49},
{"id":152,"cityname":"Mougins","zipcode":"06254 CEDEX","regionid":445},
{"id":153,"cityname":"Yelat’ma","zipcode":"391351","regionid":997},
{"id":154,"cityname":"Shcherbinka","zipcode":"142720","regionid":987},
{"id":155,"cityname":"Henggang","zipcode":null,"regionid":793},
{"id":156,"cityname":"Boujniba","zipcode":null,"regionid":368},
{"id":157,"cityname":"Śmiłowo","zipcode":"64-810","regionid":258},
{"id":158,"cityname":"Uglegorsk","zipcode":"694902","regionid":446},
{"id":159,"cityname":"Shebalino","zipcode":"649220","regionid":903},
{"id":160,"cityname":"Kalenderovci Donji","zipcode":null,"regionid":600},
{"id":161,"cityname":"Le Mans","zipcode":"72004 CEDEX 1","regionid":157},
{"id":162,"cityname":"Pontivy","zipcode":"56309 CEDEX","regionid":840},
{"id":163,"cityname":"Bangelan","zipcode":null,"regionid":535},
{"id":164,"cityname":"Aimin","zipcode":null,"regionid":688},
{"id":165,"cityname":"Waeng Yai","zipcode":"40330","regionid":675},
{"id":166,"cityname":"Jingmen","zipcode":null,"regionid":141},
{"id":167,"cityname":"Suwatu","zipcode":null,"regionid":647},
{"id":168,"cityname":"Yihe","zipcode":null,"regionid":441},
{"id":169,"cityname":"Şafwá","zipcode":null,"regionid":216},
{"id":170,"cityname":"Examília","zipcode":null,"regionid":679},
{"id":171,"cityname":"Liaoyang","zipcode":null,"regionid":264},
{"id":172,"cityname":"Annecy","zipcode":"74982 CEDEX 9","regionid":436},
{"id":173,"cityname":"Kyosai","zipcode":null,"regionid":232},
{"id":174,"cityname":"Chitagá","zipcode":"544038","regionid":148},
{"id":175,"cityname":"Galis","zipcode":null,"regionid":484},
{"id":176,"cityname":"Washington","zipcode":"20520","regionid":15},
{"id":177,"cityname":"Ballyhaunis","zipcode":"F35","regionid":584},
{"id":178,"cityname":"Cacocum","zipcode":null,"regionid":873},
{"id":179,"cityname":"Quitilipi","zipcode":"3530","regionid":115},
{"id":180,"cityname":"Naranjo","zipcode":"20601","regionid":566},
{"id":181,"cityname":"Calanogas","zipcode":"9319","regionid":397},
{"id":182,"cityname":"Leiria","zipcode":"2400-013","regionid":869},
{"id":183,"cityname":"Vila do Bispo","zipcode":"8650-409","regionid":793},
{"id":184,"cityname":"San Remigio","zipcode":"6011","regionid":184},
{"id":185,"cityname":"Quảng Ngãi","zipcode":null,"regionid":195},
{"id":186,"cityname":"Boliden","zipcode":"936 81","regionid":554},
{"id":187,"cityname":"Huanxi","zipcode":null,"regionid":932},
{"id":188,"cityname":"Mortka","zipcode":"628206","regionid":755},
{"id":189,"cityname":"Úštěk","zipcode":"411 46","regionid":48},
{"id":190,"cityname":"Tirlyanskiy","zipcode":"442815","regionid":534},
{"id":191,"cityname":"Sarapul","zipcode":"427985","regionid":144},
{"id":192,"cityname":"Sobo","zipcode":null,"regionid":445},
{"id":193,"cityname":"Měnín","zipcode":"664 57","regionid":902},
{"id":194,"cityname":"Pinhão","zipcode":"49517-000","regionid":645},
{"id":195,"cityname":"Marseille","zipcode":"13232 CEDEX 01","regionid":128},
{"id":196,"cityname":"Qinghaihu","zipcode":null,"regionid":975},
{"id":197,"cityname":"Batiano","zipcode":"4115","regionid":261},
{"id":198,"cityname":"Houk","zipcode":null,"regionid":196},
{"id":199,"cityname":"Simapu","zipcode":null,"regionid":27},
{"id":200,"cityname":"Cilangkap","zipcode":null,"regionid":107},
{"id":201,"cityname":"Suban Jeriji","zipcode":null,"regionid":621},
{"id":202,"cityname":"Réo","zipcode":null,"regionid":302},
{"id":203,"cityname":"Cileuya","zipcode":null,"regionid":624},
{"id":204,"cityname":"Haibeitou","zipcode":null,"regionid":807},
{"id":205,"cityname":"Itapevi","zipcode":"06650-000","regionid":619},
{"id":206,"cityname":"Asunción Mita","zipcode":"22005","regionid":631},
{"id":207,"cityname":"Dasha","zipcode":null,"regionid":725},
{"id":208,"cityname":"Taourirt","zipcode":null,"regionid":110},
{"id":209,"cityname":"Máncora","zipcode":null,"regionid":928},
{"id":210,"cityname":"Zhujiatai","zipcode":null,"regionid":591},
{"id":211,"cityname":"Qinghe","zipcode":null,"regionid":860},
{"id":212,"cityname":"Nowe","zipcode":"99-333","regionid":745},
{"id":213,"cityname":"Viejo Daan Banua","zipcode":"6119","regionid":353},
{"id":214,"cityname":"Brześć Kujawski","zipcode":"87-880","regionid":656},
{"id":215,"cityname":"Milwaukee","zipcode":"53263","regionid":405},
{"id":216,"cityname":"Tambo","zipcode":null,"regionid":720},
{"id":217,"cityname":"Fantan","zipcode":null,"regionid":759},
{"id":218,"cityname":"Teeli","zipcode":"668010","regionid":396},
{"id":219,"cityname":"Mercedes","zipcode":"3470","regionid":502},
{"id":220,"cityname":"Kudamatsu","zipcode":"745-0654","regionid":761},
{"id":221,"cityname":"Koźle","zipcode":"47-280","regionid":28},
{"id":222,"cityname":"Osnabrück","zipcode":"49082","regionid":910},
{"id":223,"cityname":"Raojān","zipcode":"4343","regionid":768},
{"id":224,"cityname":"Valencia","zipcode":"6306","regionid":792},
{"id":225,"cityname":"Tennō","zipcode":"492-8204","regionid":917},
{"id":226,"cityname":"Kifrī","zipcode":null,"regionid":614},
{"id":227,"cityname":"Karangduren Dua","zipcode":null,"regionid":751},
{"id":228,"cityname":"Sośnie","zipcode":"63-435","regionid":997},
{"id":229,"cityname":"El Paso","zipcode":"88519","regionid":877},
{"id":230,"cityname":"Zhangjiaji","zipcode":null,"regionid":617},
{"id":231,"cityname":"São Mateus do Sul","zipcode":"83900-000","regionid":355},
{"id":232,"cityname":"Wilkes Barre","zipcode":"18763","regionid":344},
{"id":233,"cityname":"Vodyane","zipcode":null,"regionid":70},
{"id":234,"cityname":"Berber","zipcode":null,"regionid":960},
{"id":235,"cityname":"Jiangchuanlu","zipcode":null,"regionid":196},
{"id":236,"cityname":"Lidong","zipcode":null,"regionid":866},
{"id":237,"cityname":"Garbolovo","zipcode":"188668","regionid":799},
{"id":238,"cityname":"Creil","zipcode":"60315 CEDEX 5","regionid":379},
{"id":239,"cityname":"Lembung Tengah","zipcode":null,"regionid":517},
{"id":240,"cityname":"Huyunxiang","zipcode":null,"regionid":974},
{"id":241,"cityname":"Gómez","zipcode":null,"regionid":394},
{"id":242,"cityname":"São José dos Campos","zipcode":"12200-000","regionid":102},
{"id":243,"cityname":"Louisville","zipcode":"40266","regionid":107},
{"id":244,"cityname":"Iberia","zipcode":null,"regionid":715},
{"id":245,"cityname":"Halimaung Jaya (F-3)","zipcode":null,"regionid":879},
{"id":246,"cityname":"Talangnan","zipcode":"6028","regionid":828},
{"id":247,"cityname":"Fengli","zipcode":null,"regionid":732},
{"id":248,"cityname":"Longonjo","zipcode":null,"regionid":993},
{"id":249,"cityname":"Červené Pečky","zipcode":"281 21","regionid":950},
{"id":250,"cityname":"Mykolayiv","zipcode":null,"regionid":824},
{"id":251,"cityname":"Privolzhsk","zipcode":"155553","regionid":889},
{"id":252,"cityname":"Karangbalong","zipcode":null,"regionid":989},
{"id":253,"cityname":"Fichē","zipcode":null,"regionid":716},
{"id":254,"cityname":"Kungsbacka","zipcode":"434 38","regionid":913},
{"id":255,"cityname":"Deventer","zipcode":"7409","regionid":949},
{"id":256,"cityname":"Jinggan","zipcode":null,"regionid":846},
{"id":257,"cityname":"Le Chambon-Feugerolles","zipcode":"42505 CEDEX","regionid":677},
{"id":258,"cityname":"Loutráki","zipcode":null,"regionid":67},
{"id":259,"cityname":"Changkeng","zipcode":null,"regionid":472},
{"id":260,"cityname":"Kut Chap","zipcode":"14150","regionid":591},
{"id":261,"cityname":"Kalabo","zipcode":null,"regionid":104},
{"id":262,"cityname":"Chuquitira","zipcode":null,"regionid":825},
{"id":263,"cityname":"Bratislava","zipcode":"851 03","regionid":216},
{"id":264,"cityname":"Solţānābād","zipcode":null,"regionid":191},
{"id":265,"cityname":"Wensu","zipcode":null,"regionid":672},
{"id":266,"cityname":"Lyski","zipcode":"44-295","regionid":705},
{"id":267,"cityname":"Bangassou","zipcode":null,"regionid":656},
{"id":268,"cityname":"Patimuan","zipcode":null,"regionid":437},
{"id":269,"cityname":"Parang","zipcode":"9604","regionid":884},
{"id":270,"cityname":"Pedreira","zipcode":"9630-189","regionid":38},
{"id":271,"cityname":"Kandangan","zipcode":null,"regionid":272},
{"id":272,"cityname":"Lulindi","zipcode":null,"regionid":857},
{"id":273,"cityname":"Pilar","zipcode":"8420","regionid":760},
{"id":274,"cityname":"Stepanivka","zipcode":null,"regionid":564},
{"id":275,"cityname":"Xunzhong","zipcode":null,"regionid":320},
{"id":276,"cityname":"Czerwieńsk","zipcode":"66-016","regionid":429},
{"id":277,"cityname":"Coari","zipcode":"69460-000","regionid":200},
{"id":278,"cityname":"Dachong","zipcode":null,"regionid":944},
{"id":279,"cityname":"Changqi","zipcode":null,"regionid":828},
{"id":280,"cityname":"Łękawica","zipcode":"34-321","regionid":345},
{"id":281,"cityname":"Konde","zipcode":null,"regionid":843},
{"id":282,"cityname":"Casa Branca","zipcode":"13700-000","regionid":354},
{"id":283,"cityname":"Baní","zipcode":"10505","regionid":400},
{"id":284,"cityname":"Yao","zipcode":"701-0301","regionid":881},
{"id":285,"cityname":"Abreus","zipcode":null,"regionid":565},
{"id":286,"cityname":"Shirahamachō-usazakiminami","zipcode":"672-8090","regionid":768},
{"id":287,"cityname":"Malaga","zipcode":"1109","regionid":332},
{"id":288,"cityname":"Yala","zipcode":"95000","regionid":909},
{"id":289,"cityname":"Moneghetti","zipcode":"98000","regionid":758},
{"id":290,"cityname":"Paraty","zipcode":"23970-000","regionid":713},
{"id":291,"cityname":"Kameoka","zipcode":"992-0321","regionid":137},
{"id":292,"cityname":"Llanera","zipcode":"3126","regionid":108},
{"id":293,"cityname":"Dongshi","zipcode":null,"regionid":636},
{"id":294,"cityname":"Chemnitz","zipcode":"09123","regionid":251},
{"id":295,"cityname":"Trélazé","zipcode":"49804 CEDEX","regionid":158},
{"id":296,"cityname":"Kabuynan","zipcode":"8311","regionid":343},
{"id":297,"cityname":"Lazaro Cardenas","zipcode":"55407","regionid":718},
{"id":298,"cityname":"Anguera","zipcode":"44670-000","regionid":245},
{"id":299,"cityname":"Lấp Vò","zipcode":null,"regionid":995},
{"id":300,"cityname":"Tabia","zipcode":null,"regionid":212},
{"id":301,"cityname":"Puerto Morazán","zipcode":null,"regionid":435},
{"id":302,"cityname":"Consuelo","zipcode":"1128","regionid":254},
{"id":303,"cityname":"Illéla","zipcode":null,"regionid":136},
{"id":304,"cityname":"Devesa","zipcode":"4970-521","regionid":529},
{"id":305,"cityname":"Durham","zipcode":"27705","regionid":110},
{"id":306,"cityname":"Chittagong","zipcode":"4000","regionid":755},
{"id":307,"cityname":"Zhongbu","zipcode":null,"regionid":577},
{"id":308,"cityname":"Fort Dauphin","zipcode":null,"regionid":953},
{"id":309,"cityname":"Örnsköldsvik","zipcode":"891 41","regionid":501},
{"id":310,"cityname":"Kasli","zipcode":"456835","regionid":512},
{"id":311,"cityname":"Hongjiaguan","zipcode":null,"regionid":407},
{"id":312,"cityname":"Walce","zipcode":"47-344","regionid":796},
{"id":313,"cityname":"Sorochinsk","zipcode":"461949","regionid":685},
{"id":314,"cityname":"Tanzybey","zipcode":"653226","regionid":416},
{"id":315,"cityname":"Palencia","zipcode":"34005","regionid":947},
{"id":316,"cityname":"Biao","zipcode":"2701","regionid":348},
{"id":317,"cityname":"Dongshe","zipcode":null,"regionid":484},
{"id":318,"cityname":"Binjiang","zipcode":null,"regionid":700},
{"id":319,"cityname":"Sertânia","zipcode":"56600-000","regionid":468},
{"id":320,"cityname":"Mamara","zipcode":null,"regionid":285},
{"id":321,"cityname":"Bicurga","zipcode":null,"regionid":738},
{"id":322,"cityname":"Dallas","zipcode":"75287","regionid":184},
{"id":323,"cityname":"Nakhon Chai Si","zipcode":"40160","regionid":47},
{"id":324,"cityname":"Sumber","zipcode":null,"regionid":62},
{"id":325,"cityname":"Čakovec","zipcode":"40000","regionid":877},
{"id":326,"cityname":"Cikaso","zipcode":null,"regionid":556},
{"id":327,"cityname":"La Seyne-sur-Mer","zipcode":"83514 CEDEX","regionid":509},
{"id":328,"cityname":"Serzedo","zipcode":"4410-013","regionid":28},
{"id":329,"cityname":"Quipot","zipcode":"5014","regionid":297},
{"id":330,"cityname":"Ailibugai","zipcode":null,"regionid":188},
{"id":331,"cityname":"Banjar Ponggang","zipcode":null,"regionid":398},
{"id":332,"cityname":"Zebrzydowice","zipcode":"43-410","regionid":951},
{"id":333,"cityname":"Belén de los Andaquíes","zipcode":"186018","regionid":762},
{"id":334,"cityname":"Pskov","zipcode":"180559","regionid":62},
{"id":335,"cityname":"Jinchang","zipcode":null,"regionid":121},
{"id":336,"cityname":"Moutas","zipcode":"3700-674","regionid":444},
{"id":337,"cityname":"Shiling","zipcode":null,"regionid":288},
{"id":338,"cityname":"Pretoria","zipcode":"0204","regionid":25},
{"id":339,"cityname":"Dongyu","zipcode":null,"regionid":323},
{"id":340,"cityname":"Shikārpur","zipcode":"80501","regionid":917},
{"id":341,"cityname":"Starokorsunskaya","zipcode":"385274","regionid":114},
{"id":342,"cityname":"Zwedru","zipcode":null,"regionid":763},
{"id":343,"cityname":"Sindangrasa","zipcode":null,"regionid":187},
{"id":344,"cityname":"Limulan","zipcode":"9808","regionid":284},
{"id":345,"cityname":"Lyaskelya","zipcode":"186806","regionid":210},
{"id":346,"cityname":"Jeleuk","zipcode":null,"regionid":950},
{"id":347,"cityname":"Aleksandrovskiy Zavod","zipcode":"356024","regionid":607},
{"id":348,"cityname":"Cartí Suitupo","zipcode":null,"regionid":412},
{"id":349,"cityname":"Farīmān","zipcode":null,"regionid":37},
{"id":350,"cityname":"Dong Charoen","zipcode":"66210","regionid":923},
{"id":351,"cityname":"Mato Cheirinhos","zipcode":"2785-220","regionid":868},
{"id":352,"cityname":"Podbrdo","zipcode":null,"regionid":66},
{"id":353,"cityname":"Kirovgrad","zipcode":"624144","regionid":711},
{"id":354,"cityname":"Kislovodsk","zipcode":"357748","regionid":950},
{"id":355,"cityname":"Utsjoki","zipcode":"99981","regionid":599},
{"id":356,"cityname":"Shetan","zipcode":null,"regionid":405},
{"id":357,"cityname":"Shangjia","zipcode":null,"regionid":65},
{"id":358,"cityname":"Quinta dos Frades","zipcode":"2420-334","regionid":419},
{"id":359,"cityname":"Rio das Ostras","zipcode":"28890-000","regionid":3},
{"id":360,"cityname":"Ngluwuk","zipcode":null,"regionid":14},
{"id":361,"cityname":"Valday","zipcode":"175419","regionid":463},
{"id":362,"cityname":"Gorzów Wielkopolski","zipcode":"66-418","regionid":917},
{"id":363,"cityname":"Estoi","zipcode":"8005-453","regionid":791},
{"id":364,"cityname":"Guangli","zipcode":null,"regionid":475},
{"id":365,"cityname":"Orël","zipcode":"303014","regionid":723},
{"id":366,"cityname":"Lille","zipcode":"59024 CEDEX","regionid":559},
{"id":367,"cityname":"Stockholm","zipcode":"162 87","regionid":280},
{"id":368,"cityname":"Mauá","zipcode":"09300-000","regionid":162},
{"id":369,"cityname":"Banjarjo","zipcode":null,"regionid":225},
{"id":370,"cityname":"Shangjing","zipcode":null,"regionid":509},
{"id":371,"cityname":"Oleiros","zipcode":"6160-402","regionid":775},
{"id":372,"cityname":"Hongsung","zipcode":null,"regionid":808},
{"id":373,"cityname":"Bitica","zipcode":null,"regionid":650},
{"id":374,"cityname":"Korisós","zipcode":null,"regionid":733},
{"id":375,"cityname":"Shirokaya Rechka","zipcode":"620995","regionid":649},
{"id":376,"cityname":"Veselynove","zipcode":null,"regionid":183},
{"id":377,"cityname":"Kostomuksha","zipcode":"186932","regionid":479},
{"id":378,"cityname":"Kericho","zipcode":null,"regionid":336},
{"id":379,"cityname":"Szamotuły","zipcode":"64-500","regionid":52},
{"id":380,"cityname":"Villa del Rosario","zipcode":"541038","regionid":317},
{"id":381,"cityname":"Broto","zipcode":null,"regionid":138},
{"id":382,"cityname":"Calasgasan","zipcode":"4508","regionid":961},
{"id":383,"cityname":"Toulouse","zipcode":"31489 CEDEX 4","regionid":605},
{"id":384,"cityname":"Ráquira","zipcode":"153809","regionid":373},
{"id":385,"cityname":"Touzao","zipcode":null,"regionid":686},
{"id":386,"cityname":"Qīr Moāv","zipcode":null,"regionid":45},
{"id":387,"cityname":"Baiqi","zipcode":null,"regionid":100},
{"id":388,"cityname":"Mirów","zipcode":"53-402","regionid":497},
{"id":389,"cityname":"Norfolk","zipcode":"23504","regionid":595},
{"id":390,"cityname":"Mława","zipcode":"06-501","regionid":813},
{"id":391,"cityname":"Tayum","zipcode":"2803","regionid":813},
{"id":392,"cityname":"Punaauia","zipcode":null,"regionid":456},
{"id":393,"cityname":"Bojen Kulon","zipcode":null,"regionid":670},
{"id":394,"cityname":"Alibunan","zipcode":"5042","regionid":898},
{"id":395,"cityname":"Merke","zipcode":null,"regionid":809},
{"id":396,"cityname":"Comapa","zipcode":"22011","regionid":829},
{"id":397,"cityname":"Mikhaylovka","zipcode":"397641","regionid":327},
{"id":398,"cityname":"Korolev","zipcode":"249087","regionid":770},
{"id":399,"cityname":"Al Manzilah","zipcode":null,"regionid":428},
{"id":400,"cityname":"Septfontaines","zipcode":"L-8396","regionid":370},
{"id":401,"cityname":"Lipu","zipcode":null,"regionid":571},
{"id":402,"cityname":"Choya","zipcode":"649193","regionid":55},
{"id":403,"cityname":"Massy","zipcode":"91574 CEDEX","regionid":826},
{"id":404,"cityname":"Tulsa","zipcode":"74103","regionid":772},
{"id":405,"cityname":"Hongqi","zipcode":null,"regionid":578},
{"id":406,"cityname":"Rokitno Szlacheckie","zipcode":"42-454","regionid":662},
{"id":407,"cityname":"Siedleczka","zipcode":"37-230","regionid":834},
{"id":408,"cityname":"Brzeg Dolny","zipcode":"56-122","regionid":183},
{"id":409,"cityname":"Hefu","zipcode":null,"regionid":306},
{"id":410,"cityname":"Changqi","zipcode":null,"regionid":584},
{"id":411,"cityname":"Bang Mun Nak","zipcode":"66120","regionid":530},
{"id":412,"cityname":"As Sūsah","zipcode":null,"regionid":182},
{"id":413,"cityname":"Örebro","zipcode":"703 64","regionid":734},
{"id":414,"cityname":"Ribeiro","zipcode":"3465-132","regionid":771},
{"id":415,"cityname":"Rongcheng","zipcode":null,"regionid":66},
{"id":416,"cityname":"Xiaopingba","zipcode":null,"regionid":512},
{"id":417,"cityname":"Oke Ila","zipcode":null,"regionid":968},
{"id":418,"cityname":"Chroustovice","zipcode":"538 63","regionid":288},
{"id":419,"cityname":"Rzeszów","zipcode":"35-959","regionid":656},
{"id":420,"cityname":"Pensacola","zipcode":"32590","regionid":559},
{"id":421,"cityname":"Aserrí","zipcode":"10601","regionid":625},
{"id":422,"cityname":"Manhush","zipcode":null,"regionid":972},
{"id":423,"cityname":"Aston","zipcode":"TF6","regionid":562},
{"id":424,"cityname":"Esquina","zipcode":"5131","regionid":563},
{"id":425,"cityname":"Kubanskiy","zipcode":"102085","regionid":241},
{"id":426,"cityname":"Jiangmen","zipcode":null,"regionid":935},
{"id":427,"cityname":"Seixal","zipcode":"2530-254","regionid":397},
{"id":428,"cityname":"Santo António das Areias","zipcode":"7330-254","regionid":177},
{"id":429,"cityname":"Hengjie","zipcode":null,"regionid":893},
{"id":430,"cityname":"Clermont-Ferrand","zipcode":"63032 CEDEX 9","regionid":455},
{"id":431,"cityname":"Punta Arenas","zipcode":null,"regionid":480},
{"id":432,"cityname":"Higashimurayama-shi","zipcode":"359-1144","regionid":722},
{"id":433,"cityname":"Perlez","zipcode":null,"regionid":907},
{"id":434,"cityname":"Hamilton","zipcode":"3244","regionid":267},
{"id":435,"cityname":"Dingcheng","zipcode":null,"regionid":139},
{"id":436,"cityname":"Kax","zipcode":null,"regionid":759},
{"id":437,"cityname":"Yangjia","zipcode":null,"regionid":190},
{"id":438,"cityname":"Xiadu","zipcode":null,"regionid":186},
{"id":439,"cityname":"Zoumi","zipcode":null,"regionid":611},
{"id":440,"cityname":"São Bernardo do Campo","zipcode":"09700-000","regionid":438},
{"id":441,"cityname":"General Conesa","zipcode":"8503","regionid":211},
{"id":442,"cityname":"Alto do Estanqueiro","zipcode":"2870-610","regionid":572},
{"id":443,"cityname":"Longyearbyen","zipcode":"9171","regionid":276},
{"id":444,"cityname":"Cunday","zipcode":"734048","regionid":661},
{"id":445,"cityname":"Khŭjand","zipcode":null,"regionid":378},
{"id":446,"cityname":"Casal do Relvas","zipcode":"2440-341","regionid":745},
{"id":447,"cityname":"Jiqu","zipcode":null,"regionid":244},
{"id":448,"cityname":"Wuxihe","zipcode":null,"regionid":483},
{"id":449,"cityname":"Colonia Mauricio José Troche","zipcode":null,"regionid":424},
{"id":450,"cityname":"Maintang","zipcode":null,"regionid":384},
{"id":451,"cityname":"Novoshakhtinskiy","zipcode":"692659","regionid":340},
{"id":452,"cityname":"København","zipcode":"1608","regionid":871},
{"id":453,"cityname":"Abakan","zipcode":"655131","regionid":819},
{"id":454,"cityname":"Dologon","zipcode":"8714","regionid":521},
{"id":455,"cityname":"Vavozh","zipcode":"427314","regionid":584},
{"id":456,"cityname":"Pingyao","zipcode":null,"regionid":206},
{"id":457,"cityname":"Tayirove","zipcode":null,"regionid":285},
{"id":458,"cityname":"Petrovskiy","zipcode":"399445","regionid":864},
{"id":459,"cityname":"Loma Alta","zipcode":"87605","regionid":572},
{"id":460,"cityname":"Simpang","zipcode":null,"regionid":94},
{"id":461,"cityname":"Fontana","zipcode":"3514","regionid":966},
{"id":462,"cityname":"Tawau","zipcode":"91010","regionid":418},
{"id":463,"cityname":"Dake","zipcode":null,"regionid":539},
{"id":464,"cityname":"Jiangbei","zipcode":null,"regionid":991},
{"id":465,"cityname":"Barreiros","zipcode":"4615-492","regionid":844},
{"id":466,"cityname":"Sidomakmur","zipcode":null,"regionid":265},
{"id":467,"cityname":"Mambulo","zipcode":"4407","regionid":38},
{"id":468,"cityname":"Angers","zipcode":"49010 CEDEX 01","regionid":486},
{"id":469,"cityname":"Ayagoz","zipcode":null,"regionid":298},
{"id":470,"cityname":"Hlybokaye","zipcode":null,"regionid":941},
{"id":471,"cityname":"Humble","zipcode":"77346","regionid":667},
{"id":472,"cityname":"Gominhães","zipcode":"4800-424","regionid":882},
{"id":473,"cityname":"Prokuplje","zipcode":null,"regionid":335},
{"id":474,"cityname":"Le Mans","zipcode":"72004 CEDEX 1","regionid":961},
{"id":475,"cityname":"Iguatu","zipcode":"85423-000","regionid":393},
{"id":476,"cityname":"El Rancho","zipcode":null,"regionid":975},
{"id":477,"cityname":"Sarapul","zipcode":"427985","regionid":267},
{"id":478,"cityname":"San Pedro","zipcode":"4023","regionid":67},
{"id":479,"cityname":"Yokosuka","zipcode":"987-2224","regionid":766},
{"id":480,"cityname":"Bagacay","zipcode":"7032","regionid":45},
{"id":481,"cityname":"Datun","zipcode":null,"regionid":769},
{"id":482,"cityname":"Rushankou","zipcode":null,"regionid":465},
{"id":483,"cityname":"Čačak","zipcode":null,"regionid":363},
{"id":484,"cityname":"Anaheim","zipcode":"92825","regionid":201},
{"id":485,"cityname":"Laidian","zipcode":null,"regionid":683},
{"id":486,"cityname":"Pyetrykaw","zipcode":null,"regionid":41},
{"id":487,"cityname":"Gobernador Ingeniero Valentín Virasoro","zipcode":"3342","regionid":258},
{"id":488,"cityname":"Budapest","zipcode":"1122","regionid":136},
{"id":489,"cityname":"Vyshhorod","zipcode":null,"regionid":950},
{"id":490,"cityname":"Manhete","zipcode":"4750-549","regionid":209},
{"id":491,"cityname":"Haixing","zipcode":null,"regionid":871},
{"id":492,"cityname":"Yeniköy","zipcode":"45600","regionid":104},
{"id":493,"cityname":"Mangere","zipcode":"2154","regionid":57},
{"id":494,"cityname":"Altos","zipcode":null,"regionid":835},
{"id":495,"cityname":"Dulolong","zipcode":null,"regionid":581},
{"id":496,"cityname":"Belleville","zipcode":"K8P","regionid":936},
{"id":497,"cityname":"Bethlehem","zipcode":"9706","regionid":136},
{"id":498,"cityname":"Walahir","zipcode":null,"regionid":636},
{"id":499,"cityname":"Chengzhong","zipcode":null,"regionid":462},
{"id":500,"cityname":"Velká nad Veličkou","zipcode":"696 74","regionid":12},
{"id":501,"cityname":"San Juan","zipcode":"11301","regionid":990},
{"id":502,"cityname":"Cipadung Timur","zipcode":null,"regionid":563},
{"id":503,"cityname":"Anticala","zipcode":"6010","regionid":388},
{"id":504,"cityname":"Suwangi Utara","zipcode":null,"regionid":324},
{"id":505,"cityname":"Punta Arenas","zipcode":null,"regionid":762},
{"id":506,"cityname":"Obonoma","zipcode":null,"regionid":902},
{"id":507,"cityname":"Jezerce","zipcode":"53231","regionid":683},
{"id":508,"cityname":"Nazaré","zipcode":"77895-000","regionid":350},
{"id":509,"cityname":"Prachin Buri","zipcode":"31110","regionid":283},
{"id":510,"cityname":"Mumias","zipcode":null,"regionid":414},
{"id":511,"cityname":"Gorno Orizari","zipcode":"1408","regionid":280},
{"id":512,"cityname":"Kota Kinabalu","zipcode":"88906","regionid":6},
{"id":513,"cityname":"Ujungpangkah","zipcode":null,"regionid":693},
{"id":514,"cityname":"Nanam","zipcode":null,"regionid":220},
{"id":515,"cityname":"Quţūr","zipcode":null,"regionid":428},
{"id":516,"cityname":"Pombos","zipcode":"55630-000","regionid":649},
{"id":517,"cityname":"Złoty Stok","zipcode":"57-250","regionid":886},
{"id":518,"cityname":"Handaqi","zipcode":null,"regionid":82},
{"id":519,"cityname":"Soutelo","zipcode":"4990-565","regionid":397},
{"id":520,"cityname":"Benito Juarez","zipcode":"31540","regionid":907},
{"id":521,"cityname":"Río Grande","zipcode":"11515","regionid":483},
{"id":522,"cityname":"Changping","zipcode":null,"regionid":16},
{"id":523,"cityname":"Viengxay","zipcode":null,"regionid":712},
{"id":524,"cityname":"Tegalalang","zipcode":null,"regionid":925},
{"id":525,"cityname":"Glubokiy","zipcode":"368034","regionid":468},
{"id":526,"cityname":"Behbahān","zipcode":null,"regionid":472},
{"id":527,"cityname":"Linglu","zipcode":null,"regionid":746},
{"id":528,"cityname":"Warin Chamrap","zipcode":"76110","regionid":277},
{"id":529,"cityname":"Borjomi","zipcode":null,"regionid":440},
{"id":530,"cityname":"Juegang","zipcode":null,"regionid":878},
{"id":531,"cityname":"Masape","zipcode":null,"regionid":431},
{"id":532,"cityname":"Banho e Carvalhosa","zipcode":"4635-005","regionid":191},
{"id":533,"cityname":"Rio Formoso","zipcode":"55570-000","regionid":309},
{"id":534,"cityname":"Utrecht (stad)","zipcode":"3560","regionid":689},
{"id":535,"cityname":"Al Muwayh","zipcode":null,"regionid":199},
{"id":536,"cityname":"Nanbin","zipcode":null,"regionid":803},
{"id":537,"cityname":"Bakau","zipcode":null,"regionid":636},
{"id":538,"cityname":"Cileueur","zipcode":null,"regionid":102},
{"id":539,"cityname":"Calizo","zipcode":"5610","regionid":971},
{"id":540,"cityname":"Kaum Kaler","zipcode":null,"regionid":502},
{"id":541,"cityname":"Cikandang","zipcode":null,"regionid":213},
{"id":542,"cityname":"El Copey","zipcode":"201018","regionid":4},
{"id":543,"cityname":"Yuetang","zipcode":null,"regionid":81},
{"id":544,"cityname":"Gandu","zipcode":"45450-000","regionid":192},
{"id":545,"cityname":"Nantes","zipcode":"44933 CEDEX 9","regionid":405},
{"id":546,"cityname":"Curpahuasi","zipcode":null,"regionid":713},
{"id":547,"cityname":"Pogonsili","zipcode":"4335","regionid":339},
{"id":548,"cityname":"Memaliaj","zipcode":null,"regionid":304},
{"id":549,"cityname":"Ciakar","zipcode":null,"regionid":47},
{"id":550,"cityname":"Larochette","zipcode":"L-7634","regionid":671},
{"id":551,"cityname":"Olival Basto","zipcode":"2620-005","regionid":211},
{"id":552,"cityname":"Bolkhov","zipcode":"303158","regionid":745},
{"id":553,"cityname":"Babakandesa","zipcode":null,"regionid":230},
{"id":554,"cityname":"Carvalho","zipcode":"4605-425","regionid":926},
{"id":555,"cityname":"Volot","zipcode":"175100","regionid":826},
{"id":556,"cityname":"Arnaía","zipcode":null,"regionid":20},
{"id":557,"cityname":"Soubré","zipcode":null,"regionid":345},
{"id":558,"cityname":"Campo Viera","zipcode":"3362","regionid":958},
{"id":559,"cityname":"Hedao","zipcode":null,"regionid":175},
{"id":560,"cityname":"Vale de Touros","zipcode":"2950-137","regionid":842},
{"id":561,"cityname":"Ruda Śląska","zipcode":"41-717","regionid":721},
{"id":562,"cityname":"Hidalgo","zipcode":"26060","regionid":228},
{"id":563,"cityname":"Chupa","zipcode":"186670","regionid":652},
{"id":564,"cityname":"Novomoskovs’k","zipcode":null,"regionid":524},
{"id":565,"cityname":"Santa Ana","zipcode":"92725","regionid":670},
{"id":566,"cityname":"Carmo do Cajuru","zipcode":"35510-000","regionid":97},
{"id":567,"cityname":"Buenavista","zipcode":"154848","regionid":85},
{"id":568,"cityname":"Tirat Karmel","zipcode":null,"regionid":405},
{"id":569,"cityname":"San Clemente","zipcode":null,"regionid":80},
{"id":570,"cityname":"Kauhan","zipcode":null,"regionid":858},
{"id":571,"cityname":"Saint-André-Avellin","zipcode":"T5Y","regionid":208},
{"id":572,"cityname":"Guaimaca","zipcode":null,"regionid":202},
{"id":573,"cityname":"Gbarnga","zipcode":null,"regionid":479},
{"id":574,"cityname":"Alençon","zipcode":"61004 CEDEX","regionid":274},
{"id":575,"cityname":"Peredovaya","zipcode":"352275","regionid":579},
{"id":576,"cityname":"Jiangxigou","zipcode":null,"regionid":55},
{"id":577,"cityname":"Xiangyanglu","zipcode":null,"regionid":358},
{"id":578,"cityname":"Sun Kunda","zipcode":null,"regionid":121},
{"id":579,"cityname":"Kostino","zipcode":"613060","regionid":725},
{"id":580,"cityname":"Gajiram","zipcode":null,"regionid":863},
{"id":581,"cityname":"Linglu","zipcode":null,"regionid":118},
{"id":582,"cityname":"Al Badārī","zipcode":null,"regionid":805},
{"id":583,"cityname":"Vailoa","zipcode":null,"regionid":150},
{"id":584,"cityname":"Zhulebino","zipcode":"140074","regionid":21},
{"id":585,"cityname":"Emiliano Zapata","zipcode":"82190","regionid":446},
{"id":586,"cityname":"Shichuan","zipcode":null,"regionid":11},
{"id":587,"cityname":"Gunungjulang","zipcode":null,"regionid":118},
{"id":588,"cityname":"Uddevalla","zipcode":"451 19","regionid":828},
{"id":589,"cityname":"Coromandel","zipcode":"38550-000","regionid":938},
{"id":590,"cityname":"Datong","zipcode":null,"regionid":174},
{"id":591,"cityname":"Tankhoy","zipcode":"671221","regionid":549},
{"id":592,"cityname":"Smedjebacken","zipcode":"777 34","regionid":144},
{"id":593,"cityname":"Ica","zipcode":null,"regionid":790},
{"id":594,"cityname":"Jingchuan Chengguanzhen","zipcode":null,"regionid":481},
{"id":595,"cityname":"Bagrāmī","zipcode":null,"regionid":539},
{"id":596,"cityname":"Borisovka","zipcode":"307736","regionid":118},
{"id":597,"cityname":"Bailingnao","zipcode":null,"regionid":137},
{"id":598,"cityname":"Jardinópolis","zipcode":"14680-000","regionid":872},
{"id":599,"cityname":"Mokronog","zipcode":"8230","regionid":453},
{"id":600,"cityname":"Bayt ‘Ūr at Taḩtā","zipcode":null,"regionid":807},
{"id":601,"cityname":"Liangzeng","zipcode":null,"regionid":968},
{"id":602,"cityname":"Lajeado","zipcode":"77645-000","regionid":213},
{"id":603,"cityname":"Shanghudi","zipcode":null,"regionid":961},
{"id":604,"cityname":"Ōgaki","zipcode":"503-2429","regionid":585},
{"id":605,"cityname":"Bouillon","zipcode":"6834","regionid":229},
{"id":606,"cityname":"‘Ayn al ‘Arab","zipcode":null,"regionid":7},
{"id":607,"cityname":"Ponte Nova","zipcode":"4620-378","regionid":84},
{"id":608,"cityname":"Shuangshi","zipcode":null,"regionid":927},
{"id":609,"cityname":"Poço Verde","zipcode":"49490-000","regionid":651},
{"id":610,"cityname":"Gaohe","zipcode":null,"regionid":920},
{"id":611,"cityname":"Al Jawf","zipcode":null,"regionid":149},
{"id":612,"cityname":"Costa Nova do Prado","zipcode":"3830-455","regionid":383},
{"id":613,"cityname":"Uppsala","zipcode":"751 87","regionid":593},
{"id":614,"cityname":"Cisarap","zipcode":null,"regionid":340},
{"id":615,"cityname":"Zaïo","zipcode":null,"regionid":514},
{"id":616,"cityname":"Yangyu","zipcode":null,"regionid":203},
{"id":617,"cityname":"San Fernando","zipcode":"8711","regionid":305},
{"id":618,"cityname":"Suban","zipcode":null,"regionid":372},
{"id":619,"cityname":"Mossoró","zipcode":"59600-000","regionid":999},
{"id":620,"cityname":"Wengaingo","zipcode":null,"regionid":986},
{"id":621,"cityname":"Ndeaboh","zipcode":null,"regionid":810},
{"id":622,"cityname":"Australia Square","zipcode":"1213","regionid":799},
{"id":623,"cityname":"Ludvika","zipcode":"771 31","regionid":272},
{"id":624,"cityname":"Petaling Jaya","zipcode":"46675","regionid":629},
{"id":625,"cityname":"Shatalovo","zipcode":"162535","regionid":20},
{"id":626,"cityname":"Zhouzhuang","zipcode":null,"regionid":38},
{"id":627,"cityname":"Tukan","zipcode":"453550","regionid":92},
{"id":628,"cityname":"Ash Sharyah","zipcode":null,"regionid":956},
{"id":629,"cityname":"Zebrzydowice","zipcode":"43-410","regionid":543},
{"id":630,"cityname":"Beicheng","zipcode":null,"regionid":224},
{"id":631,"cityname":"Iralaya","zipcode":null,"regionid":388},
{"id":632,"cityname":"Gaoleshan","zipcode":null,"regionid":964},
{"id":633,"cityname":"Sere","zipcode":null,"regionid":963},
{"id":634,"cityname":"Nangka","zipcode":null,"regionid":864},
{"id":635,"cityname":"Glugur Krajan","zipcode":null,"regionid":449},
{"id":636,"cityname":"Humaitá","zipcode":"98670-000","regionid":752},
{"id":637,"cityname":"Storozhevaya","zipcode":"369160","regionid":96},
{"id":638,"cityname":"Slovenski Javornik","zipcode":"4274","regionid":48},
{"id":639,"cityname":"Berlin","zipcode":"13409","regionid":839},
{"id":640,"cityname":"Cileles","zipcode":null,"regionid":876},
{"id":641,"cityname":"Bagacay","zipcode":"1427","regionid":784},
{"id":642,"cityname":"Shahrud","zipcode":null,"regionid":2},
{"id":643,"cityname":"Međa","zipcode":null,"regionid":755},
{"id":644,"cityname":"Tan Sum","zipcode":"34330","regionid":191},
{"id":645,"cityname":"Taounza","zipcode":null,"regionid":802},
{"id":646,"cityname":"Tshikapa","zipcode":null,"regionid":396},
{"id":647,"cityname":"Otavi","zipcode":null,"regionid":919},
{"id":648,"cityname":"Lovrenc na Pohorju","zipcode":"2344","regionid":925},
{"id":649,"cityname":"Yuyang","zipcode":null,"regionid":169},
{"id":650,"cityname":"Jiulong","zipcode":null,"regionid":653},
{"id":651,"cityname":"Sokoto","zipcode":null,"regionid":39},
{"id":652,"cityname":"Tinaco","zipcode":null,"regionid":918},
{"id":653,"cityname":"Boden","zipcode":"961 73","regionid":128},
{"id":654,"cityname":"Sobang","zipcode":null,"regionid":912},
{"id":655,"cityname":"Jarānwāla","zipcode":"37281","regionid":240},
{"id":656,"cityname":"Frederico Westphalen","zipcode":"98400-000","regionid":205},
{"id":657,"cityname":"Iniö","zipcode":"23390","regionid":289},
{"id":658,"cityname":"Desa Borogojol","zipcode":null,"regionid":437},
{"id":659,"cityname":"Xiachen","zipcode":null,"regionid":146},
{"id":660,"cityname":"Florence","zipcode":"29505","regionid":259},
{"id":661,"cityname":"Satuek","zipcode":"31150","regionid":715},
{"id":662,"cityname":"Bārkhān","zipcode":"84400","regionid":212},
{"id":663,"cityname":"Moste","zipcode":"1241","regionid":554},
{"id":664,"cityname":"Shuanglong","zipcode":null,"regionid":603},
{"id":665,"cityname":"Lorica","zipcode":"231048","regionid":362},
{"id":666,"cityname":"Sarzedo","zipcode":"32450-000","regionid":303},
{"id":667,"cityname":"Pop Shahri","zipcode":null,"regionid":954},
{"id":668,"cityname":"Naghalin","zipcode":"4106","regionid":855},
{"id":669,"cityname":"Jinhu","zipcode":null,"regionid":696},
{"id":670,"cityname":"Sa Bot","zipcode":"15240","regionid":837},
{"id":671,"cityname":"Orlando","zipcode":"32825","regionid":355},
{"id":672,"cityname":"Oklahoma City","zipcode":"73173","regionid":639},
{"id":673,"cityname":"Shimoda","zipcode":"886-0112","regionid":10},
{"id":674,"cityname":"Brwinów","zipcode":"05-840","regionid":551},
{"id":675,"cityname":"Pitangueiras","zipcode":"14750-000","regionid":583},
{"id":676,"cityname":"Letovice","zipcode":"679 61","regionid":415},
{"id":677,"cityname":"Silvares","zipcode":"6230-636","regionid":85},
{"id":678,"cityname":"Ortigueira","zipcode":"84350-000","regionid":518},
{"id":679,"cityname":"Frederiksberg","zipcode":"1853","regionid":262},
{"id":680,"cityname":"Yichun","zipcode":null,"regionid":828},
{"id":681,"cityname":"Otofuke","zipcode":"463-0015","regionid":658},
{"id":682,"cityname":"Slunj","zipcode":"47240","regionid":690},
{"id":683,"cityname":"Jamundí","zipcode":"764008","regionid":95},
{"id":684,"cityname":"Xiongji","zipcode":null,"regionid":920},
{"id":685,"cityname":"Walichnowy","zipcode":"85-056","regionid":901},
{"id":686,"cityname":"Nongoma","zipcode":"3950","regionid":905},
{"id":687,"cityname":"Huangtugang","zipcode":null,"regionid":711},
{"id":688,"cityname":"Sacramento","zipcode":"95894","regionid":801},
{"id":689,"cityname":"Haarlem","zipcode":"2019","regionid":582},
{"id":690,"cityname":"Nizhnedevitsk","zipcode":"396882","regionid":820},
{"id":691,"cityname":"Lajeado","zipcode":"77645-000","regionid":609},
{"id":692,"cityname":"Imtarfa","zipcode":"ZBG","regionid":992},
{"id":693,"cityname":"Buk","zipcode":"64-320","regionid":596},
{"id":694,"cityname":"Ljukovo","zipcode":null,"regionid":321},
{"id":695,"cityname":"San Juan Pueblo","zipcode":null,"regionid":8},
{"id":696,"cityname":"Nangtang","zipcode":null,"regionid":6},
{"id":697,"cityname":"Psáry","zipcode":"252 44","regionid":638},
{"id":698,"cityname":"Sölvesborg","zipcode":"294 21","regionid":740},
{"id":699,"cityname":"Birmingham","zipcode":"B40","regionid":268},
{"id":700,"cityname":"Tsuruoka","zipcode":"669-5313","regionid":551},
{"id":701,"cityname":"Nong Bua Daeng","zipcode":"36210","regionid":916},
{"id":702,"cityname":"Béziers","zipcode":"34545 CEDEX","regionid":156},
{"id":703,"cityname":"Mełgiew","zipcode":"21-007","regionid":611},
{"id":704,"cityname":"Khānpur","zipcode":"33100","regionid":847},
{"id":705,"cityname":"Hidalgo","zipcode":"30625","regionid":76},
{"id":706,"cityname":"Puncakwangi","zipcode":null,"regionid":854},
{"id":707,"cityname":"San Pascual","zipcode":"5420","regionid":331},
{"id":708,"cityname":"Uglyanets","zipcode":"396130","regionid":657},
{"id":709,"cityname":"Tyszowce","zipcode":"22-630","regionid":866},
{"id":710,"cityname":"Winseler","zipcode":"L-9696","regionid":551},
{"id":711,"cityname":"Kauman","zipcode":null,"regionid":375},
{"id":712,"cityname":"Koungou","zipcode":"97600","regionid":270},
{"id":713,"cityname":"Pomerode","zipcode":"89107-000","regionid":736},
{"id":714,"cityname":"Chwałowice","zipcode":"27-630","regionid":780},
{"id":715,"cityname":"Iitti","zipcode":"47520","regionid":174},
{"id":716,"cityname":"Gampang","zipcode":null,"regionid":676},
{"id":717,"cityname":"Düsseldorf","zipcode":"40489","regionid":859},
{"id":718,"cityname":"Paojan","zipcode":null,"regionid":670},
{"id":719,"cityname":"Mateus Leme","zipcode":"35670-000","regionid":403},
{"id":720,"cityname":"Kasembon","zipcode":null,"regionid":762},
{"id":721,"cityname":"Haukivuori","zipcode":"51601","regionid":891},
{"id":722,"cityname":"Budzów","zipcode":"34-211","regionid":359},
{"id":723,"cityname":"Massenya","zipcode":null,"regionid":963},
{"id":724,"cityname":"Parigi","zipcode":null,"regionid":840},
{"id":725,"cityname":"Tohong","zipcode":null,"regionid":586},
{"id":726,"cityname":"Virje","zipcode":"48326","regionid":68},
{"id":727,"cityname":"Hamm","zipcode":"59071","regionid":622},
{"id":728,"cityname":"Cochabamba","zipcode":null,"regionid":490},
{"id":729,"cityname":"Lyubashivka","zipcode":null,"regionid":122},
{"id":730,"cityname":"Wuyang","zipcode":null,"regionid":293},
{"id":731,"cityname":"Shirone","zipcode":"950-1262","regionid":811},
{"id":732,"cityname":"Tangcun","zipcode":null,"regionid":228},
{"id":733,"cityname":"Santa Teresita","zipcode":"4206","regionid":601},
{"id":734,"cityname":"Listvyanskiy","zipcode":"633224","regionid":550},
{"id":735,"cityname":"San Cristóbal","zipcode":"11511","regionid":871},
{"id":736,"cityname":"Mandalt","zipcode":null,"regionid":699},
{"id":737,"cityname":"Zangbawa","zipcode":null,"regionid":205},
{"id":738,"cityname":"Shuangtang","zipcode":null,"regionid":908},
{"id":739,"cityname":"Lourdes","zipcode":"1114","regionid":884},
{"id":740,"cityname":"Wuxue Shi","zipcode":null,"regionid":540},
{"id":741,"cityname":"Hujirt","zipcode":null,"regionid":330},
{"id":742,"cityname":"Boston","zipcode":"02298","regionid":28},
{"id":743,"cityname":"Koryukivka","zipcode":null,"regionid":621},
{"id":744,"cityname":"Pont Cassé","zipcode":null,"regionid":900},
{"id":745,"cityname":"Kalunan","zipcode":null,"regionid":249},
{"id":746,"cityname":"Barbacena","zipcode":"36200-000","regionid":224},
{"id":747,"cityname":"Pirapora","zipcode":"39270-000","regionid":743},
{"id":748,"cityname":"Cukalat","zipcode":null,"regionid":617},
{"id":749,"cityname":"Plaju","zipcode":null,"regionid":619},
{"id":750,"cityname":"Chengdong","zipcode":null,"regionid":43},
{"id":751,"cityname":"Niepos","zipcode":null,"regionid":110},
{"id":752,"cityname":"Muurame","zipcode":"40951","regionid":973},
{"id":753,"cityname":"Nha Trang","zipcode":null,"regionid":762},
{"id":754,"cityname":"Cajabamba","zipcode":null,"regionid":405},
{"id":755,"cityname":"Soubré","zipcode":null,"regionid":630},
{"id":756,"cityname":"Coronel Vivida","zipcode":"85550-000","regionid":759},
{"id":757,"cityname":"Krajan Caluk","zipcode":null,"regionid":360},
{"id":758,"cityname":"Timurjaya","zipcode":null,"regionid":361},
{"id":759,"cityname":"Pesnica pri Mariboru","zipcode":"2211","regionid":309},
{"id":760,"cityname":"Växjö","zipcode":"352 44","regionid":590},
{"id":761,"cityname":"Acobambilla","zipcode":null,"regionid":832},
{"id":762,"cityname":"Muravlenko","zipcode":"102293","regionid":852},
{"id":763,"cityname":"Paingar","zipcode":null,"regionid":871},
{"id":764,"cityname":"Yishan","zipcode":null,"regionid":441},
{"id":765,"cityname":"Falun","zipcode":"791 09","regionid":208},
{"id":766,"cityname":"Baishi","zipcode":null,"regionid":118},
{"id":767,"cityname":"Suohe","zipcode":null,"regionid":221},
{"id":768,"cityname":"Saijō","zipcode":"793-0213","regionid":720},
{"id":769,"cityname":"Il’ka","zipcode":"671331","regionid":260},
{"id":770,"cityname":"Polonne","zipcode":null,"regionid":283},
{"id":771,"cityname":"Mojo","zipcode":null,"regionid":875},
{"id":772,"cityname":"Amarillo","zipcode":"79176","regionid":566},
{"id":773,"cityname":"Naha-shi","zipcode":"903-0826","regionid":603},
{"id":774,"cityname":"Pirapora","zipcode":"39270-000","regionid":918},
{"id":775,"cityname":"Kaishantun","zipcode":null,"regionid":415},
{"id":776,"cityname":"Ipoh","zipcode":"30532","regionid":162},
{"id":777,"cityname":"Siayan","zipcode":"7113","regionid":234},
{"id":778,"cityname":"Fuzihe","zipcode":null,"regionid":514},
{"id":779,"cityname":"Kara-Balta","zipcode":null,"regionid":896},
{"id":780,"cityname":"Socota","zipcode":null,"regionid":405},
{"id":781,"cityname":"Misungwi","zipcode":null,"regionid":905},
{"id":782,"cityname":"Watari","zipcode":"960-8141","regionid":560},
{"id":783,"cityname":"Zaozhuang","zipcode":null,"regionid":522},
{"id":784,"cityname":"Bagacay","zipcode":"1427","regionid":249},
{"id":785,"cityname":"Suvorov","zipcode":"301439","regionid":571},
{"id":786,"cityname":"Strasbourg","zipcode":"67024 CEDEX 1","regionid":853},
{"id":787,"cityname":"Sidi Slimane","zipcode":null,"regionid":423},
{"id":788,"cityname":"Skrwilno","zipcode":"87-510","regionid":48},
{"id":789,"cityname":"Valmiera","zipcode":null,"regionid":18},
{"id":790,"cityname":"Bucheon-si","zipcode":null,"regionid":476},
{"id":791,"cityname":"Tajur","zipcode":null,"regionid":343},
{"id":792,"cityname":"Baozhu","zipcode":null,"regionid":779},
{"id":793,"cityname":"Romny","zipcode":"676620","regionid":848},
{"id":794,"cityname":"Sertolovo","zipcode":"197758","regionid":165},
{"id":795,"cityname":"Shiye","zipcode":null,"regionid":483},
{"id":796,"cityname":"Wuku","zipcode":null,"regionid":57},
{"id":797,"cityname":"Erhe","zipcode":null,"regionid":816},
{"id":798,"cityname":"Älvängen","zipcode":"446 38","regionid":160},
{"id":799,"cityname":"Gemuruh","zipcode":null,"regionid":214},
{"id":800,"cityname":"Sabang","zipcode":"4110","regionid":168},
{"id":801,"cityname":"Bollène","zipcode":"84504 CEDEX","regionid":453},
{"id":802,"cityname":"Sidu","zipcode":null,"regionid":254},
{"id":803,"cityname":"Bungursari","zipcode":null,"regionid":71},
{"id":804,"cityname":"Gemuruh","zipcode":null,"regionid":194},
{"id":805,"cityname":"Jiucaizhuang","zipcode":null,"regionid":119},
{"id":806,"cityname":"Nové Město pod Smrkem","zipcode":"463 65","regionid":73},
{"id":807,"cityname":"Il’inskiy Pogost","zipcode":"142655","regionid":610},
{"id":808,"cityname":"Kochetok","zipcode":null,"regionid":945},
{"id":809,"cityname":"Yurla","zipcode":"619222","regionid":876},
{"id":810,"cityname":"Meilin","zipcode":null,"regionid":850},
{"id":811,"cityname":"Ayaviri","zipcode":null,"regionid":924},
{"id":812,"cityname":"Saint-Péray","zipcode":"07139 CEDEX","regionid":433},
{"id":813,"cityname":"Vila Franca da Beira","zipcode":"3405-605","regionid":186},
{"id":814,"cityname":"Tangqian","zipcode":null,"regionid":539},
{"id":815,"cityname":"Serowe","zipcode":null,"regionid":698},
{"id":816,"cityname":"Bailianhe","zipcode":null,"regionid":942},
{"id":817,"cityname":"Annapolis","zipcode":"21405","regionid":874},
{"id":818,"cityname":"Ḩarastā","zipcode":null,"regionid":731},
{"id":819,"cityname":"Sapadun","zipcode":"9614","regionid":394},
{"id":820,"cityname":"Pozuzo","zipcode":null,"regionid":486},
{"id":821,"cityname":"Raciąż","zipcode":"09-140","regionid":624},
{"id":822,"cityname":"Szczawno-Zdrój","zipcode":"58-310","regionid":654},
{"id":823,"cityname":"Górki","zipcode":"39-306","regionid":126},
{"id":824,"cityname":"Del Pilar","zipcode":"8720","regionid":208},
{"id":825,"cityname":"Caratinga","zipcode":"35300-000","regionid":839},
{"id":826,"cityname":"Ballsh","zipcode":null,"regionid":150},
{"id":827,"cityname":"Hisor","zipcode":null,"regionid":635},
{"id":828,"cityname":"Les Sables-d'Olonne","zipcode":"85109 CEDEX","regionid":850},
{"id":829,"cityname":"Inuvik","zipcode":"E8L","regionid":23},
{"id":830,"cityname":"Washington","zipcode":"20530","regionid":918},
{"id":831,"cityname":"Villa Dolores","zipcode":"5870","regionid":408},
{"id":832,"cityname":"Pagatin","zipcode":"9607","regionid":941},
{"id":833,"cityname":"Saint-Denis","zipcode":"97717 CEDEX 9","regionid":435},
{"id":834,"cityname":"Kobilje","zipcode":"9227","regionid":699},
{"id":835,"cityname":"Hudong","zipcode":null,"regionid":808},
{"id":836,"cityname":"Montería","zipcode":"230029","regionid":397},
{"id":837,"cityname":"Söderhamn","zipcode":"826 31","regionid":823},
{"id":838,"cityname":"Iperó","zipcode":"18560-000","regionid":381},
{"id":839,"cityname":"Rosice","zipcode":"588 33","regionid":218},
{"id":840,"cityname":"Wichita","zipcode":"67210","regionid":444},
{"id":841,"cityname":"Kalynivka","zipcode":null,"regionid":5},
{"id":842,"cityname":"Kovači","zipcode":null,"regionid":440},
{"id":843,"cityname":"Nanding","zipcode":null,"regionid":305},
{"id":844,"cityname":"Kirovohrad","zipcode":null,"regionid":702},
{"id":845,"cityname":"San Lucas Tolimán","zipcode":"07013","regionid":84},
{"id":846,"cityname":"Santa Cruz da Graciosa","zipcode":"9880-324","regionid":780},
{"id":847,"cityname":"Palmeira","zipcode":"88545-000","regionid":540},
{"id":848,"cityname":"Tegalsari","zipcode":null,"regionid":854},
{"id":849,"cityname":"Tatuí","zipcode":"18270-000","regionid":293},
{"id":850,"cityname":"Tuntum","zipcode":"65763-000","regionid":302},
{"id":851,"cityname":"Rueil-Malmaison","zipcode":"92509 CEDEX","regionid":50},
{"id":852,"cityname":"Langzhong","zipcode":null,"regionid":51},
{"id":853,"cityname":"Tayum","zipcode":"2803","regionid":939},
{"id":854,"cityname":"Krupka","zipcode":"417 41","regionid":593},
{"id":855,"cityname":"Jianxi","zipcode":null,"regionid":78},
{"id":856,"cityname":"Ar Riqqah","zipcode":null,"regionid":424},
{"id":857,"cityname":"Markaz-e Ḩukūmat-e Darwēshān","zipcode":null,"regionid":199},
{"id":858,"cityname":"Ciparay","zipcode":null,"regionid":317},
{"id":859,"cityname":"Xinhuang","zipcode":null,"regionid":309},
{"id":860,"cityname":"Åkersberga","zipcode":"184 92","regionid":690},
{"id":861,"cityname":"Lailunggi","zipcode":null,"regionid":36},
{"id":862,"cityname":"Thị Trấn Trùng Khánh","zipcode":null,"regionid":593},
{"id":863,"cityname":"Yufa","zipcode":null,"regionid":749},
{"id":864,"cityname":"Itapaci","zipcode":"76360-000","regionid":286},
{"id":865,"cityname":"Maria Aurora","zipcode":"3202","regionid":185},
{"id":866,"cityname":"Kazaure","zipcode":null,"regionid":830},
{"id":867,"cityname":"Cungking","zipcode":null,"regionid":498},
{"id":868,"cityname":"Pulaupanggung","zipcode":null,"regionid":60},
{"id":869,"cityname":"Zouiat ech Cheïkh","zipcode":null,"regionid":919},
{"id":870,"cityname":"Créteil","zipcode":"94039 CEDEX","regionid":912},
{"id":871,"cityname":"Przemęt","zipcode":"64-234","regionid":431},
{"id":872,"cityname":"Bentiu","zipcode":null,"regionid":430},
{"id":873,"cityname":"Wyszogród","zipcode":"09-450","regionid":741},
{"id":874,"cityname":"Gonghe","zipcode":null,"regionid":939},
{"id":875,"cityname":"Gvardeysk","zipcode":"162160","regionid":340},
{"id":876,"cityname":"Karangsari","zipcode":null,"regionid":256},
{"id":877,"cityname":"Huangwei","zipcode":null,"regionid":985},
{"id":878,"cityname":"Nanggela","zipcode":null,"regionid":239},
{"id":879,"cityname":"Tsalka","zipcode":null,"regionid":527},
{"id":880,"cityname":"Kabalen","zipcode":"9505","regionid":495},
{"id":881,"cityname":"Luzhi","zipcode":null,"regionid":179},
{"id":882,"cityname":"Sighnaghi","zipcode":null,"regionid":446},
{"id":883,"cityname":"Cabak Satu","zipcode":null,"regionid":706},
{"id":884,"cityname":"Omaha","zipcode":"68144","regionid":971},
{"id":885,"cityname":"Cartagena","zipcode":"130027","regionid":182},
{"id":886,"cityname":"Qiqing","zipcode":null,"regionid":25},
{"id":887,"cityname":"Efkarpía","zipcode":null,"regionid":694},
{"id":888,"cityname":"Nacimiento","zipcode":null,"regionid":381},
{"id":889,"cityname":"Novallas","zipcode":"7213","regionid":536},
{"id":890,"cityname":"Madala","zipcode":null,"regionid":391},
{"id":891,"cityname":"Masjed Soleymān","zipcode":null,"regionid":789},
{"id":892,"cityname":"Mehrān","zipcode":null,"regionid":988},
{"id":893,"cityname":"Adamantina","zipcode":"17800-000","regionid":374},
{"id":894,"cityname":"Padang","zipcode":"1719","regionid":475},
{"id":895,"cityname":"Xilian","zipcode":null,"regionid":595},
{"id":896,"cityname":"Shiyuan","zipcode":null,"regionid":401},
{"id":897,"cityname":"Jarabacoa","zipcode":"10801","regionid":898},
{"id":898,"cityname":"Sidaurip","zipcode":null,"regionid":15},
{"id":899,"cityname":"Staraya Mayna","zipcode":"215662","regionid":457},
{"id":900,"cityname":"Issa","zipcode":"442710","regionid":208},
{"id":901,"cityname":"Arapongas","zipcode":"86700-000","regionid":800},
{"id":902,"cityname":"Tanda","zipcode":null,"regionid":951},
{"id":903,"cityname":"Chating","zipcode":null,"regionid":537},
{"id":904,"cityname":"Cabudare","zipcode":null,"regionid":753},
{"id":905,"cityname":"Brie-Comte-Robert","zipcode":"77254 CEDEX","regionid":962},
{"id":906,"cityname":"Likhoy","zipcode":"356501","regionid":492},
{"id":907,"cityname":"Lloqan","zipcode":null,"regionid":934},
{"id":908,"cityname":"Fengcun","zipcode":null,"regionid":461},
{"id":909,"cityname":"Severnyy","zipcode":"309060","regionid":521},
{"id":910,"cityname":"Mikhaylov","zipcode":"391710","regionid":196},
{"id":911,"cityname":"Real","zipcode":"4750-488","regionid":128},
{"id":912,"cityname":"Borisovka","zipcode":"307736","regionid":561},
{"id":913,"cityname":"Kaka","zipcode":null,"regionid":133},
{"id":914,"cityname":"Piduhe","zipcode":null,"regionid":83},
{"id":915,"cityname":"Antigonish","zipcode":"B2G","regionid":242},
{"id":916,"cityname":"Paraíso","zipcode":null,"regionid":757},
{"id":917,"cityname":"Cimuncang","zipcode":null,"regionid":138},
{"id":918,"cityname":"Lampa","zipcode":null,"regionid":87},
{"id":919,"cityname":"Boucinha","zipcode":"4890-011","regionid":191},
{"id":920,"cityname":"Brades","zipcode":null,"regionid":783},
{"id":921,"cityname":"Xiaoguwei","zipcode":null,"regionid":595},
{"id":922,"cityname":"Louisville","zipcode":"40280","regionid":996},
{"id":923,"cityname":"Kebonkaret","zipcode":null,"regionid":208},
{"id":924,"cityname":"Quintão","zipcode":"4750-771","regionid":241},
{"id":925,"cityname":"Ganhe","zipcode":null,"regionid":447},
{"id":926,"cityname":"Horton","zipcode":"BS37","regionid":923},
{"id":927,"cityname":"Celje","zipcode":"3600","regionid":994},
{"id":928,"cityname":"Izmaylovo","zipcode":"662686","regionid":284},
{"id":929,"cityname":"Si Wilai","zipcode":"43210","regionid":437},
{"id":930,"cityname":"Phú Khương","zipcode":null,"regionid":832},
{"id":931,"cityname":"Jacaraú","zipcode":"58278-000","regionid":674},
{"id":932,"cityname":"Mendi","zipcode":null,"regionid":281},
{"id":933,"cityname":"Chandra","zipcode":null,"regionid":928},
{"id":934,"cityname":"Circasia","zipcode":"631008","regionid":273},
{"id":935,"cityname":"Cihaladan","zipcode":null,"regionid":654},
{"id":936,"cityname":"Chynadiyovo","zipcode":null,"regionid":877},
{"id":937,"cityname":"Kronoby","zipcode":"01760","regionid":247},
{"id":938,"cityname":"Fukuroi","zipcode":"437-0026","regionid":466},
{"id":939,"cityname":"Itaporanga","zipcode":"18480-000","regionid":524},
{"id":940,"cityname":"Buyant","zipcode":null,"regionid":910},
{"id":941,"cityname":"Kraton","zipcode":null,"regionid":536},
{"id":942,"cityname":"Uchkeken","zipcode":"369394","regionid":638},
{"id":943,"cityname":"Seboruco","zipcode":null,"regionid":297},
{"id":944,"cityname":"Quesada","zipcode":"21001","regionid":331},
{"id":945,"cityname":"Sedayulawas","zipcode":null,"regionid":894},
{"id":946,"cityname":"Nysa","zipcode":"48-304","regionid":957},
{"id":947,"cityname":"Bucheon-si","zipcode":null,"regionid":241},
{"id":948,"cityname":"Huyang","zipcode":null,"regionid":874},
{"id":949,"cityname":"Jinlong","zipcode":null,"regionid":488},
{"id":950,"cityname":"Krajan Pundungsari","zipcode":null,"regionid":252},
{"id":951,"cityname":"Dabat","zipcode":null,"regionid":315},
{"id":952,"cityname":"Chkalov","zipcode":null,"regionid":425},
{"id":953,"cityname":"Waldbredimus","zipcode":"L-5465","regionid":721},
{"id":954,"cityname":"Vila Franca do Campo","zipcode":"9680-105","regionid":146},
{"id":955,"cityname":"Södertälje","zipcode":"152 31","regionid":178},
{"id":956,"cityname":"Kasugai","zipcode":"488-0884","regionid":133},
{"id":957,"cityname":"Niimi","zipcode":"718-0011","regionid":751},
{"id":958,"cityname":"Azara","zipcode":"3351","regionid":479},
{"id":959,"cityname":"Cirangrang","zipcode":null,"regionid":206},
{"id":960,"cityname":"Trakai","zipcode":"21001","regionid":796},
{"id":961,"cityname":"Aracaju","zipcode":"49000-000","regionid":268},
{"id":962,"cityname":"Sishilichengzi","zipcode":null,"regionid":786},
{"id":963,"cityname":"Amsterdam Westpoort","zipcode":"1049","regionid":55},
{"id":964,"cityname":"Bastia","zipcode":"20292 CEDEX","regionid":446},
{"id":965,"cityname":"Qingyuan","zipcode":null,"regionid":828},
{"id":966,"cityname":"Kishiwada","zipcode":"571-0002","regionid":405},
{"id":967,"cityname":"Lobão","zipcode":"4505-427","regionid":291},
{"id":968,"cityname":"Horad Smalyavichy","zipcode":null,"regionid":866},
{"id":969,"cityname":"Edsbyn","zipcode":"828 25","regionid":532},
{"id":970,"cityname":"Skellefteå","zipcode":"931 57","regionid":441},
{"id":971,"cityname":"Governor’s Harbour","zipcode":null,"regionid":649},
{"id":972,"cityname":"Jianggao","zipcode":null,"regionid":826},
{"id":973,"cityname":"Nanyang","zipcode":null,"regionid":417},
{"id":974,"cityname":"Rtyně v Podkrkonoší","zipcode":"542 33","regionid":230},
{"id":975,"cityname":"Leonidovo","zipcode":"694230","regionid":125},
{"id":976,"cityname":"Masuda","zipcode":"999-8201","regionid":517},
{"id":977,"cityname":"Kinéta","zipcode":null,"regionid":549},
{"id":978,"cityname":"Kuantan","zipcode":"26040","regionid":32},
{"id":979,"cityname":"Kanshi","zipcode":null,"regionid":575},
{"id":980,"cityname":"Bunisari","zipcode":null,"regionid":388},
{"id":981,"cityname":"Souto da Casa","zipcode":"6230-689","regionid":520},
{"id":982,"cityname":"Malec","zipcode":"43-356","regionid":443},
{"id":983,"cityname":"Xinzhou","zipcode":null,"regionid":233},
{"id":984,"cityname":"Pinghu","zipcode":null,"regionid":390},
{"id":985,"cityname":"Ninh Hòa","zipcode":null,"regionid":653},
{"id":986,"cityname":"Majdal Banī Fāḑil","zipcode":null,"regionid":292},
{"id":987,"cityname":"Neringa","zipcode":"93017","regionid":957},
{"id":988,"cityname":"Jifnā","zipcode":null,"regionid":416},
{"id":989,"cityname":"Barreira","zipcode":"4950-680","regionid":895},
{"id":990,"cityname":"Al Bīrah","zipcode":null,"regionid":673},
{"id":991,"cityname":"Veiros","zipcode":"3860-346","regionid":492},
{"id":992,"cityname":"Santo Domingo","zipcode":"4508","regionid":659},
{"id":993,"cityname":"Szczurowa","zipcode":"32-820","regionid":876},
{"id":994,"cityname":"Vranisht","zipcode":null,"regionid":456},
{"id":995,"cityname":"Angol","zipcode":null,"regionid":463},
{"id":996,"cityname":"Pirojpur","zipcode":"1811","regionid":558},
{"id":997,"cityname":"Erdenet","zipcode":null,"regionid":518},
{"id":998,"cityname":"Xianghua","zipcode":null,"regionid":494},
{"id":999,"cityname":"Niños Heroes","zipcode":"68145","regionid":293},
{"id":1000,"cityname":"Liuxiang","zipcode":null,"regionid":362}]